OBJECT_NAME,OBJECT_ID,EPOCH,MEAN_MOTION,ECCENTRICITY,INCLINATION,RA_OF_ASC_NODE,ARG_OF_PERICENTER,MEAN_ANOMALY,EPHEMERIS_TYPE,CLASSIFICATION_TYPE,NORAD_CAT_ID,ELEMENT_SET_NO,REV_AT_EPOCH,BSTAR,MEAN_MOTION_DOT,MEAN_MOTION_DDOT
STARLINK-37120,2026-053E,2026-06-15T05:29:56.181408,15.33437027,.0001251,97.2855,41.3398,101.6822,258.4561,0,U,68211,999,1514,.21241E-3,.6787E-4,0
STARLINK-37117,2026-053F,2026-06-15T05:26:02.973120,15.33421068,.0001567,97.2857,41.3444,93.2157,266.9265,0,U,68212,999,1516,.28652E-3,.9179E-4,0
STARLINK-37116,2026-053G,2026-06-15T13:11:56.971680,15.33445560,.0001794,97.2851,41.6711,81.3598,278.7848,0,U,68213,999,1521,.3908E-3,.12563E-3,0
STARLINK-35854,2026-053H,2026-06-15T09:20:55.932864,15.33422772,.0001698,97.2849,41.5737,96.0395,264.1041,0,U,68214,999,1517,.26947E-3,.8629E-4,0
STARLINK-36272,2026-053J,2026-06-15T13:04:07.012704,15.33445702,.000171,97.2850,41.6729,85.8535,274.2903,0,U,68215,999,1519,.32909E-3,.10564E-3,0
STARLINK-37014,2026-053K,2026-06-15T13:00:11.257344,15.33461582,.0001748,97.2854,41.6804,85.9967,274.1476,0,U,68216,999,1521,.59011E-3,.19034E-3,0
STARLINK-37011,2026-053L,2026-06-15T12:56:17.128032,15.33447664,.000264,97.2850,41.6816,112.9824,247.1697,0,U,68217,999,1521,.53994E-3,.17399E-3,0
STARLINK-37108,2026-053M,2026-06-15T03:28:33.629952,15.33451100,.00010396,97.2868,41.3028,59.7105,300.4240,0,U,68218,999,1515,.40138429E-3,.12908E-3,0
STARLINK-37106,2026-053N,2026-06-15T11:14:29.309856,15.33443322,.0002182,97.2857,41.6289,87.0566,273.0926,0,U,68219,999,1520,.39447E-3,.12681E-3,0
STARLINK-37030,2026-053P,2026-06-15T09:32:41.439840,15.33447404,.0002009,97.2865,41.5702,83.5581,276.5891,0,U,68220,999,1519,.39474E-3,.12691E-3,0
STARLINK-37012,2026-053Q,2026-06-15T09:36:36.276768,15.33452207,.0002129,97.2859,41.5686,81.3374,278.8110,0,U,68221,999,1519,.4747E-3,.15285E-3,0
STARLINK-37110,2026-053R,2026-06-15T11:02:44.653056,15.33440106,.0002032,97.2850,41.6381,95.3879,264.7595,0,U,68222,999,1520,.44912E-3,.1445E-3,0
STARLINK-37025,2026-053S,2026-06-15T09:24:51.513696,15.33446439,.0001993,97.2855,41.5778,88.4074,271.7397,0,U,68223,999,1519,.31488E-3,.10105E-3,0
STARLINK-36960,2026-053U,2026-06-15T03:01:09.088032,15.33458105,.0001086,97.2881,41.3288,100.8033,259.3332,0,U,68225,999,1513,.73745734E-3,.23818E-3,0
STARLINK-37038,2026-053V,2026-06-15T09:09:11.722752,15.33439300,.000184,97.2857,41.5924,90.8815,269.2638,0,U,68226,999,1517,.28989E-3,.9294E-4,0
STARLINK-37083,2026-053W,2026-06-15T09:13:06.708288,15.33436239,.0001691,97.2857,41.5892,92.6148,267.5289,0,U,68227,999,1516,.49526E-4,.1524E-4,0
STARLINK-37050,2026-053X,2026-06-15T09:05:16.077120,15.33427139,.0001772,97.2858,41.5967,96.3314,263.8131,0,U,68228,999,1517,-.21211E-3,-.6913E-4,0
STARLINK-37081,2026-053Y,2026-06-15T12:00:02.000160,15.33416363,.0002031,97.2847,44.6838,92.2095,24.7653,0,U,68229,999,599,.18864E-2,.61267E-3,0
STARLINK-37100,2026-053Z,2026-06-15T09:01:22.507680,15.33435513,.0002853,97.2867,41.5983,83.9893,276.1675,0,U,68230,999,1519,.43002E-3,.1383E-3,0
STARLINK-37104,2026-053AA,2026-06-15T10:31:25.161888,15.33435509,.0001859,97.2854,41.6683,92.1135,268.0321,0,U,68231,999,1520,.40012E-3,.12861E-3,0
STARLINK-37027,2026-054A,2026-06-15T09:24:49.877280,15.34392599,.0001242,53.1576,195.6687,89.0652,271.0493,0,U,68232,999,1405,.43332E-3,.14289E-3,0
STARLINK-37132,2026-054B,2026-06-15T08:23:43.774944,15.49359014,.000123,53.1555,196.1656,50.9850,309.1268,0,U,68233,999,1404,.95883E-3,.53337E-3,0
STARLINK-37101,2026-054C,2026-06-15T11:11:03.628608,15.49321869,.000121,53.1570,198.3563,101.0557,259.0588,0,U,68234,999,1402,.15199E-3,.8017E-4,0
STARLINK-36963,2026-054D,2026-06-15T08:36:29.714400,15.34396785,.0001046,53.1571,196.1741,78.9067,281.2053,0,U,68235,999,1404,.54349E-3,.18029E-3,0
STARLINK-37127,2026-054E,2026-06-15T09:06:15.031296,15.49325544,.0000958,53.1572,198.5205,75.3961,284.7154,0,U,68236,999,1401,.61411E-3,.33874E-3,0
STARLINK-37095,2026-054F,2026-06-15T08:33:27.190944,15.34394535,.0000983,53.1576,196.1614,87.6421,272.4694,0,U,68237,999,1404,.50505E-3,.16723E-3,0
STARLINK-37097,2026-054G,2026-06-15T07:41:56.826240,15.34394829,.0001572,53.1581,195.9386,79.3258,280.7921,0,U,68238,999,1404,.48512E-3,.16047E-3,0
STARLINK-37096,2026-054H,2026-06-15T12:00:02.000160,15.34371521,.0001524,53.1575,195.1466,100.6596,146.6479,0,U,68239,999,586,.15184E-2,.5123E-3,0
STARLINK-37092,2026-054J,2026-06-15T05:33:51.851232,15.49359328,.0001305,53.1583,199.0183,87.0043,273.1115,0,U,68240,999,1399,.10345E-2,.57615E-3,0
STARLINK-37094,2026-054K,2026-06-15T08:41:47.369184,15.30195216,.0001243,53.1574,203.3935,68.9053,291.2080,0,U,68241,999,1394,.38074E-3,.10932E-3,0
STARLINK-36356,2026-054L,2026-06-15T08:12:54.218880,15.30203354,.000129,53.1572,203.2781,89.1579,270.9569,0,U,68242,999,1394,.20114E-3,.5603E-4,0
STARLINK-36345,2026-054M,2026-06-15T09:06:39.016800,15.34396096,.0001097,53.1574,195.5839,84.2662,275.8466,0,U,68243,999,1405,.61762E-3,.20546E-3,0
STARLINK-36310,2026-054N,2026-06-15T09:45:39.475296,15.49346405,.0001323,53.1581,197.9614,80.3842,279.7316,0,U,68244,999,1402,.39346E-3,.21523E-3,0
STARLINK-36247,2026-054P,2026-06-15T12:27:43.085952,15.49315432,.0001352,53.1552,195.8088,72.5996,287.5161,0,U,68245,999,1406,.76261E-3,.42204E-3,0
STARLINK-37043,2026-054Q,2026-06-15T13:12:46.071936,15.49303035,.0001479,53.1581,197.4427,92.5778,267.5400,0,U,68246,999,1404,.99606E-3,.55331E-3,0
STARLINK-37044,2026-054R,2026-06-15T09:03:38.816640,15.49329158,.0001057,53.1551,196.3446,65.8788,294.2332,0,U,68247,999,1404,.533E-3,.29328E-3,0
STARLINK-36997,2026-054S,2026-06-15T10:05:11.865408,15.30195896,.0000863,53.1572,203.0490,82.0324,278.0775,0,U,68248,999,1395,.49611E-3,.14361E-3,0
STARLINK-37141,2026-054T,2026-06-15T09:13:08.438016,15.49327322,.0001557,53.1559,196.3914,69.6268,290.4909,0,U,68249,999,1404,.38816E-3,.21212E-3,0
STARLINK-37087,2026-054U,2026-06-15T09:53:06.354240,15.49313221,.0001624,53.1587,198.7188,66.4003,293.7177,0,U,68250,999,1401,.80818E-3,.44765E-3,0
STARLINK-36274,2026-054V,2026-06-15T09:51:30.802752,15.30225485,.00011,53.1567,202.9773,92.1341,267.9785,0,U,68251,999,1395,.33189E-3,.9491E-4,0
STARLINK-37085,2026-054W,2026-06-15T12:00:02.000160,15.44172505,.0001383,53.1590,195.5021,64.9749,24.9699,0,U,68252,999,581,-.46058E-1,-.1921994E-1,0
STARLINK-37086,2026-054X,2026-06-15T09:44:22.303680,15.49327099,.0001375,53.1559,196.5273,69.9061,290.2096,0,U,68253,999,1404,.45548E-3,.24981E-3,0
STARLINK-37084,2026-054Y,2026-06-15T11:48:17.898912,15.47487022,.0002695,53.1554,195.6302,28.9660,331.1497,0,U,68254,999,1406,-.94697E-2,-.466241E-2,0
STARLINK-37075,2026-054Z,2026-06-15T09:42:26.108640,15.49331415,.0001468,53.1571,197.9458,75.4987,284.6185,0,U,68255,999,1402,.49882E-3,.27413E-3,0
STARLINK-36333,2026-054AA,2026-06-15T10:02:09.289248,15.30198488,.0001222,53.1574,203.0178,91.9506,268.1634,0,U,68256,999,1395,.25377E-3,.7164E-4,0
STARLINK-36745,2026-054AB,2026-06-15T08:21:20.102112,15.34396393,.0001074,53.1578,196.1016,71.2132,288.8987,0,U,68257,999,1404,.66245E-3,.22069E-3,0
STARLINK-36890,2026-054AC,2026-06-15T08:08:20.882112,15.30193630,.0001795,53.1560,203.2331,83.0310,277.0895,0,U,68258,999,1394,.23223E-3,.6523E-4,0
STARLINK-36323,2026-054AD,2026-06-15T09:54:46.867680,15.49331442,.0000943,53.1568,198.0054,63.1270,296.9835,0,U,68259,999,1401,.68544E-3,.37888E-3,0
STARLINK-37056,2026-054AE,2026-06-15T05:52:55.856352,15.49331031,.0001228,53.1556,196.9375,108.4137,251.7006,0,U,68260,999,1402,.80691E-3,.44721E-3,0
TEN-KOH 2,2025-241B,2026-06-14T15:43:05.372256,15.23877984,.0006087,51.6691,331.6795,134.4842,225.6634,0,U,68261,999,1452,.24669163E-3,.5705E-4,0
STARLINK-37162,2026-055A,2026-06-15T11:21:37.871136,15.34384590,.0001165,53.1584,223.5416,99.4167,260.6967,0,U,68262,999,1492,.27114E-3,.8791E-4,0
STARLINK-37156,2026-055B,2026-06-15T11:31:25.087008,15.34389721,.0000941,53.1584,225.0096,93.3190,266.7921,0,U,68263,999,1490,.44227E-3,.14591E-3,0
STARLINK-37163,2026-055C,2026-06-15T10:57:23.105952,15.34395949,.000086,53.1568,223.4384,82.5731,277.5370,0,U,68264,999,1492,.23559E-3,.7591E-4,0
STARLINK-37133,2026-055D,2026-06-15T11:40:29.008704,15.34400826,.0001162,53.1590,225.0478,74.4969,285.6162,0,U,68265,999,1490,-.24966E-3,-.8802E-4,0
STARLINK-37042,2026-055E,2026-06-15T11:33:46.186848,15.34355811,.0001031,53.1585,223.5964,69.5951,290.5162,0,U,68266,999,1492,.51694E-3,.17105E-3,0
STARLINK-37103,2026-055F,2026-06-15T10:08:54.614976,15.34394386,.000138,53.1595,223.2278,80.5493,279.5665,0,U,68267,999,1492,.42993E-3,.14175E-3,0
STARLINK-36999,2026-055G,2026-06-15T10:14:58.066080,15.34406900,.0001442,53.1590,223.2276,66.5904,293.5250,0,U,68268,999,1492,.6838E-3,.22802E-3,0
STARLINK-36962,2026-055H,2026-06-15T10:27:05.324256,15.34393771,.000117,53.1575,223.2857,52.5581,307.5528,0,U,68269,999,1492,.64393E-3,.21438E-3,0
STARLINK-37028,2026-055J,2026-06-15T11:22:19.802784,15.34388045,.0001136,53.1572,224.9712,85.7953,274.3180,0,U,68270,999,1490,.42679E-3,.14065E-3,0
STARLINK-37029,2026-055K,2026-06-15T10:45:16.242624,15.34381779,.0001246,53.1574,223.3867,101.3063,258.8080,0,U,68271,999,1492,.26805E-3,.8686E-4,0
STARLINK-36974,2026-055L,2026-06-15T09:39:34.614144,15.34387002,.0001005,53.1574,225.9738,88.9089,271.2029,0,U,68272,999,1488,.40386E-3,.13287E-3,0
STARLINK-37019,2026-055M,2026-06-15T11:00:25.338240,15.34412904,.000131,53.1570,223.4499,82.6492,277.4660,0,U,68273,999,1492,.49459E-3,.16378E-3,0
STARLINK-37129,2026-055N,2026-06-15T11:27:41.535648,15.34381268,.0001186,53.1588,223.5663,72.9169,287.1963,0,U,68274,999,1492,.45202E-3,.14917E-3,0
STARLINK-37123,2026-055P,2026-06-15T11:18:36.001728,15.34387313,.0001076,53.1577,223.5238,83.2897,276.8228,0,U,68275,999,1492,.31189E-3,.10172E-3,0
STARLINK-37125,2026-055Q,2026-06-15T11:15:32.817312,15.34417134,.0001077,53.1577,223.5109,63.0761,297.0351,0,U,68276,999,1492,.39568E-3,.13023E-3,0
